GLOBALSTAR M094         
1 39074U 13005C   25349.74581238 -.00000094  00000+0  53138-4 0  9990
2 39074  51.9977 349.3245 0000219  16.7966 343.2908 12.62265379595304
GLOBALSTAR M096         
1 39075U 13005D   25349.83804682 -.00000099  00000+0  26683-4 0  9992
2 39075  52.0089  37.6985 0000204 144.5329 215.5552 12.62269397594237
GLOBALSTAR M078         
1 39076U 13005E   25349.65368775 -.00000098  00000+0  30662-4 0  9992
2 39076  51.9861 122.5249 0000917 168.3538 191.7350 12.62272535592831
GLOBALSTAR M095         
1 39077U 13005F   25349.83830118 -.00000108  00000+0 -21846-4 0  9995
2 39077  52.0067 119.3057 0000583 130.9598 229.1319 12.62267295592718
GLOBALSTAR M087         
1 52888U 22064A   25349.93052632 -.00000086  00000+0  10151-3 0  9993
2 52888  51.9998 260.3695 0000652  47.4011 312.6911 12.62261458167997
